{"type": "FeatureCollection", "features": [ {"type": "Feature", "properties": {"norad_id": 66618, "name": "STARLINK-35970", "group": "last-30-days", "lat": -42.34789830565424, "lon": 52.61668949791035, "alt_km": 416.0200666435003, "timestamp": "2025-12-12T05:47:27.526358+00:00", "meta": {"OBJECT_NAME": "STARLINK-35970", "OBJECT_ID": "2025-271B", "EPOCH": "2025-12-11T20:00:01.999872", "MEAN_MOTION": 15.53791312, "ECCENTRICITY": 0.00010588, "INCLINATION": 53.1589, "RA_OF_ASC_NODE": 191.4708, "ARG_OF_PERICENTER": 79.5652, "MEAN_ANOMALY": 35.9217, "EPHEMERIS_TYPE": 0, "CLASSIFICATION_TYPE": "U", "NORAD_CAT_ID": 66618, "ELEMENT_SET_NO": 999, "REV_AT_EPOCH": 409, "BSTAR": -0.0353173, "MEAN_MOTION_DOT": -0.02056136, "MEAN_MOTION_DDOT": 0}, "tle": {"line1": "1 66618U 25271B   25345.83335648 -.02056136  00000+0 -35317-1 0  9997", "line2": "2 66618  53.1589 191.4708 0001058  79.5652  35.9217 15.53791312  4095"}}, "geometry": {"type": "Point", "coordinates": [52.61668949791035, -42.34789830565424]}}, {"type": "Feature", "properties": {"norad_id": 66619, "name": "STARLINK-35951", "group": "last-30-days", "lat": -9.36683736993089, "lon": 16.708820411812646, "alt_km": 413.08516117999443, "timestamp": "2025-12-12T05:47:27.526368+00:00", "meta": {"OBJECT_NAME": "STARLINK-35951", "OBJECT_ID": "2025-271C", "EPOCH": "2025-12-11T20:00:01.999872", "MEAN_MOTION": 15.53795157, "ECCENTRICITY": 8.832e-05, "INCLINATION": 53.1602, "RA_OF_ASC_NODE": 191.5664, "ARG_OF_PERICENTER": 96.3855, "MEAN_ANOMALY": 333.4445, "EPHEMERIS_TYPE": 0, "CLASSIFICATION_TYPE": "U", "NORAD_CAT_ID": 66619, "ELEMENT_SET_NO": 999, "REV_AT_EPOCH": 409, "BSTAR": -0.035427354, "MEAN_MOTION_DOT": -0.02062, "MEAN_MOTION_DDOT": 0}, "tle": {"line1": "1 66619U 25271C   25345.83335648 -.02062000  00000+0 -35427-1 0  9997", "line2": "2 66619  53.1602 191.5664 0000883  96.3855 333.4445 15.53795157  4091"}}, "geometry": {"type": "Point", "coordinates": [16.708820411812646, -9.36683736993089]}}, {"type": "Feature", "properties": {"norad_id": 66620, "name": "STARLINK-35936", "group": "last-30-days", "lat": -4.787097596987405, "lon": 13.217374876348527, "alt_km": 412.55143585480437, "timestamp": "2025-12-12T05:47:27.526378+00:00", "meta": {"OBJECT_NAME": "STARLINK-35936", "OBJECT_ID": "2025-271D", "EPOCH": "2025-12-11T20:00:01.999872", "MEAN_MOTION": 15.53792714, "ECCENTRICITY": 8.378e-05, "INCLINATION": 53.1597, "RA_OF_ASC_NODE": 191.5791, "ARG_OF_PERICENTER": 90.4996, "MEAN_ANOMALY": 333.5813, "EPHEMERIS_TYPE": 0, "CLASSIFICATION_TYPE": "U", "NORAD_CAT_ID": 66620, "ELEMENT_SET_NO": 999, "REV_AT_EPOCH": 409, "BSTAR": -0.035358294, "MEAN_MOTION_DOT": -0.02058226, "MEAN_MOTION_DDOT": 0}, "tle": {"line1": "1 66620U 25271D   25345.83335648 -.02058226  00000+0 -35358-1 0  9997", "line2": "2 66620  53.1597 191.5791 0000837  90.4996 333.5813 15.53792714  4093"}}, "geometry": {"type": "Point", "coordinates": [13.217374876348527, -4.787097596987405]}}, {"type": "Feature", "properties": {"norad_id": 66621, "name": "STARLINK-35847", "group": "last-30-days", "lat": -44.342971452736805, "lon": 56.618098623751635, "alt_km": 416.20818151076764, "timestamp": "2025-12-12T05:47:27.526388+00:00", "meta": {"OBJECT_NAME": "STARLINK-35847", "OBJECT_ID": "2025-271E", "EPOCH": "2025-12-11T20:00:01.999872", "MEAN_MOTION": 15.53788475, "ECCENTRICITY": 0.00011741, "INCLINATION": 53.1593, "RA_OF_ASC_NODE": 191.463, "ARG_OF_PERICENTER": 77.9166, "MEAN_ANOMALY": 41.1112, "EPHEMERIS_TYPE": 0, "CLASSIFICATION_TYPE": "U", "NORAD_CAT_ID": 66621, "ELEMENT_SET_NO": 999, "REV_AT_EPOCH": 409, "BSTAR": -0.035273926, "MEAN_MOTION_DOT": -0.02053762, "MEAN_MOTION_DDOT": 0}, "tle": {"line1": "1 66621U 25271E   25345.83335648 -.02053762  00000+0 -35274-1 0  9995", "line2": "2 66621  53.1593 191.4630 0001174  77.9166  41.1112 15.53788475  4098"}}, "geometry": {"type": "Point", "coordinates": [56.618098623751635, -44.342971452736805]}}, {"type": "Feature", "properties": {"norad_id": 66622, "name": "STARLINK-35950", "group": "last-30-days", "lat": -10.886179264252476, "lon": 17.891920711041415, "alt_km": 413.3380044577643, "timestamp": "2025-12-12T05:47:27.526398+00:00", "meta": {"OBJECT_NAME": "STARLINK-35950", "OBJECT_ID": "2025-271F", "EPOCH": "2025-12-11T20:00:01.999872", "MEAN_MOTION": 15.53791197, "ECCENTRICITY": 8.353e-05, "INCLINATION": 53.1598, "RA_OF_ASC_NODE": 191.5632, "ARG_OF_PERICENTER": 91.1171, "MEAN_ANOMALY": 340.6317, "EPHEMERIS_TYPE": 0, "CLASSIFICATION_TYPE": "U", "NORAD_CAT_ID": 66622, "ELEMENT_SET_NO": 999, "REV_AT_EPOCH": 409, "BSTAR": -0.035303442, "MEAN_MOTION_DOT": -0.02055274, "MEAN_MOTION_DDOT": 0}, "tle": {"line1": "1 66622U 25271F   25345.83335648 -.02055274  00000+0 -35303-1 0  9999", "line2": "2 66622  53.1598 191.5632 0000835  91.1171 340.6317 15.53791197  4093"}}, "geometry": {"type": "Point", "coordinates": [17.891920711041415, -10.886179264252476]}}, {"type": "Feature", "properties": {"norad_id": 66623, "name": "STARLINK-35920", "group": "last-30-days", "lat": -13.909789991859112, "lon": 20.29311419822138, "alt_km": 413.65052799869227, "timestamp": "2025-12-12T05:47:27.526408+00:00", "meta": {"OBJECT_NAME": "STARLINK-35920", "OBJECT_ID": "2025-271G", "EPOCH": "2025-12-11T20:00:01.999872", "MEAN_MOTION": 15.53791272, "ECCENTRICITY": 7.965e-05, "INCLINATION": 53.1597, "RA_OF_ASC_NODE": 191.5541, "ARG_OF_PERICENTER": 94.6054, "MEAN_ANOMALY": 340.9768, "EPHEMERIS_TYPE": 0, "CLASSIFICATION_TYPE": "U", "NORAD_CAT_ID": 66623, "ELEMENT_SET_NO": 999, "REV_AT_EPOCH": 409, "BSTAR": -0.035301695, "MEAN_MOTION_DOT": -0.02055166, "MEAN_MOTION_DDOT": 0}, "tle": {"line1": "1 66623U 25271G   25345.83335648 -.02055166  00000+0 -35302-1 0  9999", "line2": "2 66623  53.1597 191.5541 0000796  94.6054 340.9768 15.53791272  4093"}}, "geometry": {"type": "Point", "coordinates": [20.29311419822138, -13.909789991859112]}}, {"type": "Feature", "properties": {"norad_id": 66624, "name": "STARLINK-35927", "group": "last-30-days", "lat": -12.40161811035072, "lon": 19.086785191297086, "alt_km": 413.48360345488345, "timestamp": "2025-12-12T05:47:27.526420+00:00", "meta": {"OBJECT_NAME": "STARLINK-35927", "OBJECT_ID": "2025-271H", "EPOCH": "2025-12-11T20:00:01.999872", "MEAN_MOTION": 15.53792087, "ECCENTRICITY": 8.942e-05, "INCLINATION": 53.1593, "RA_OF_ASC_NODE": 191.559, "ARG_OF_PERICENTER": 94.7109, "MEAN_ANOMALY": 338.9544, "EPHEMERIS_TYPE": 0, "CLASSIFICATION_TYPE": "U", "NORAD_CAT_ID": 66624, "ELEMENT_SET_NO": 999, "REV_AT_EPOCH": 409, "BSTAR": -0.035326139, "MEAN_MOTION_DOT": -0.02056548, "MEAN_MOTION_DDOT": 0}, "tle": {"line1": "1 66624U 25271H   25345.83335648 -.02056548  00000+0 -35326-1 0  9991", "line2": "2 66624  53.1593 191.5590 0000894  94.7109 338.9544 15.53792087  4099"}}, "geometry": {"type": "Point", "coordinates": [19.086785191297086, -12.40161811035072]}}, {"type": "Feature", "properties": {"norad_id": 66625, "name": "STARLINK-35929", "group": "last-30-days", "lat": -15.412752300026908, "lon": 21.51696541264695, "alt_km": 413.8093282520531, "timestamp": "2025-12-12T05:47:27.526436+00:00", "meta": {"OBJECT_NAME": "STARLINK-35929", "OBJECT_ID": "2025-271J", "EPOCH": "2025-12-11T20:00:01.999872", "MEAN_MOTION": 15.53792131, "ECCENTRICITY": 7.831e-05, "INCLINATION": 53.1596, "RA_OF_ASC_NODE": 191.55, "ARG_OF_PERICENTER": 95.4511, "MEAN_ANOMALY": 342.0471, "EPHEMERIS_TYPE": 0, "CLASSIFICATION_TYPE": "U", "NORAD_CAT_ID": 66625, "ELEMENT_SET_NO": 999, "REV_AT_EPOCH": 409, "BSTAR": -0.035313235, "MEAN_MOTION_DOT": -0.02055816, "MEAN_MOTION_DDOT": 0}, "tle": {"line1": "1 66625U 25271J   25345.83335648 -.02055816  00000+0 -35313-1 0  9995", "line2": "2 66625  53.1596 191.5500 0000783  95.4511 342.0471 15.53792131  4091"}}, "geometry": {"type": "Point", "coordinates": [21.51696541264695, -15.412752300026908]}}, {"type": "Feature", "properties": {"norad_id": 66626, "name": "STARLINK-35902", "group": "last-30-days", "lat": -16.910260450178228, "lon": 22.759800029804847, "alt_km": 413.97089842877995, "timestamp": "2025-12-12T05:47:27.526446+00:00", "meta": {"OBJECT_NAME": "STARLINK-35902", "OBJECT_ID": "2025-271K", "EPOCH": "2025-12-11T20:00:01.999872", "MEAN_MOTION": 15.53791851, "ECCENTRICITY": 8.793e-05, "INCLINATION": 53.1596, "RA_OF_ASC_NODE": 191.5459, "ARG_OF_PERICENTER": 96.9522, "MEAN_ANOMALY": 342.4633, "EPHEMERIS_TYPE": 0, "CLASSIFICATION_TYPE": "U", "NORAD_CAT_ID": 66626, "ELEMENT_SET_NO": 999, "REV_AT_EPOCH": 409, "BSTAR": -0.03529963, "MEAN_MOTION_DOT": -0.02055147, "MEAN_MOTION_DDOT": 0}, "tle": {"line1": "1 66626U 25271K   25345.83335648 -.02055147  00000+0 -35300-1 0  9999", "line2": "2 66626  53.1596 191.5459 0000879  96.9522 342.4633 15.53791851  4091"}}, "geometry": {"type": "Point", "coordinates": [22.759800029804847, -16.910260450178228]}}, {"type": "Feature", "properties": {"norad_id": 66627, "name": "STARLINK-35904", "group": "last-30-days", "lat": -18.39790917000451, "lon": 24.020735615347597, "alt_km": 414.21079406687113, "timestamp": "2025-12-12T05:47:27.526460+00:00", "meta": {"OBJECT_NAME": "STARLINK-35904", "OBJECT_ID": "2025-271L", "EPOCH": "2025-12-11T20:00:01.999872", "MEAN_MOTION": 15.53790746, "ECCENTRICITY": 8.56e-05, "INCLINATION": 53.1599, "RA_OF_ASC_NODE": 191.542, "ARG_OF_PERICENTER": 90.1499, "MEAN_ANOMALY": 351.1836, "EPHEMERIS_TYPE": 0, "CLASSIFICATION_TYPE": "U", "NORAD_CAT_ID": 66627, "ELEMENT_SET_NO": 999, "REV_AT_EPOCH": 393, "BSTAR": -0.035284775, "MEAN_MOTION_DOT": -0.02054287, "MEAN_MOTION_DDOT": 0}, "tle": {"line1": "1 66627U 25271L   25345.83335648 -.02054287  00000+0 -35285-1 0  9996", "line2": "2 66627  53.1599 191.5420 0000856  90.1499 351.1836 15.53790746  3933"}}, "geometry": {"type": "Point", "coordinates": [24.020735615347597, -18.39790917000451]}}]}